satname,norad_id,inclination_deg,eccentricity,mean_motion_rev_per_day,perigee_km,apogee_km,l1,l2
STARLINK-1008,44714,53.1574,0.0001228,15.31027927,471.90285448998293,473.58543089862906,1 44714U 19074B   26059.76321932 -.00001515  00000+0 -37942-4 0  9998,2 44714  53.1574 220.2738 0001228  73.2193 286.8943 15.31027927347505
STARLINK-1012,44718,53.1594,0.0001359,15.30198525,474.28810236224217,476.15084465174186,1 44718U 19074F   26059.73873170  .00000260  00000+0  20896-4 0  9999,2 44718  53.1594 220.3821 0001359  86.7099 273.4057 15.30198525347492
STARLINK-1017,44723,53.0525,0.0002139,15.23156531,494.85615108181264,497.79704660939933,1 44723U 19074L   26059.68806433  .00053036  00000+0  22142-2 0  9990,2 44723  53.0525 212.9602 0002139 131.9407 228.1772 15.23156531347593
STARLINK-1019,44724,53.046,0.0003624,15.78797405,331.41446640606773,336.2793123290812,1 44724U 19074M   26059.91668981  .00090244  00000+0  50093-3 0  9990,2 44724  53.0460 180.7434 0003624 170.6162  11.2682 15.78797405  5970
STARLINK-1020,44725,53.1569,0.0001414,15.30035596,474.7368606841428,476.67512748286936,1 44725U 19074N   26059.91668981  .00115156  00000+0  38599-2 0  9997,2 44725  53.1569 244.5995 0001414  83.6985 276.3438 15.30035596  5678
STARLINK-1031,44736,53.0412,0.0003159,15.86731646,309.34003602829034,313.56651916567625,1 44736U 19074Z   26059.91668981  .00155297  00000+0  58788-3 0  9992,2 44736  53.0412 164.6414 0003159 314.7075 176.4714 15.86731646  5981
STARLINK-1036,44741,53.0511,0.000356,15.53793105,403.2481619821974,408.0782277209328,1 44741U 19074AE  26059.74238256  .00113591  00000+0  17214-2 0  9996,2 44741  53.0511 231.7957 0003560 193.3554 166.7362 15.53793105347335
STARLINK-1039,44744,53.046,0.0005553,15.20703417,499.89611977147797,507.5391075053849,1 44744U 19074AH  26059.81136274  .00045733  00000+0  20554-2 0  9997,2 44744  53.0460 255.8774 0005553 144.6755 215.4609 15.20703417347002
STARLINK-1042,44747,53.0443,0.0002049,15.49285953,417.420993358779,420.2063837509486,1 44747U 19074AL  26059.62368778  .00025048  00000+0  45729-3 0  9994,2 44747  53.0443 138.2747 0002049 110.7718 249.3509 15.49285953348669
STARLINK-1043,44748,53.051,0.0002515,15.52961134,406.37910949552224,409.7925795863266,1 44748U 19074AM  26059.77873492  .00031790  00000+0  50705-3 0  9996,2 44748  53.0510 237.4692 0002515  93.6334 266.4963 15.52961134347262
STARLINK-1046,44751,53.0526,0.0007844,15.42804565,432.49012221097746,443.18302155054334,1 44751U 19074AQ  26059.80248192  .00038048  00000+0  85986-3 0  9999,2 44751  53.0526 253.0584 0007844 151.3562 208.7875 15.42804565347042
STARLINK-1047,44752,53.0685,0.0003292,15.3233224,466.601938642787,471.1099988133965,1 44752U 19074AR  26059.62670497  .00013100  00000+0  42472-3 0  9992,2 44752  53.0685 188.3369 0003292 171.7610 188.3445 15.32332240347954
STARLINK-1048,44753,53.0508,0.0003158,15.51447911,410.3533266590839,414.64229160453215,1 44753U 19074AS  26059.70184332  .00113756  00000+0  18758-2 0  9997,2 44753  53.0508 212.1289 0003158 152.7793 207.3382 15.51447911347605
STARLINK-1053,44758,53.0294,0.0006897,15.87283878,305.2888636349535,314.51434408511705,1 44758U 19074AX  26059.91668981  .00208839  00000+0  76287-3 0  9991,2 44758  53.0294 128.1046 0006897  21.6098 213.9070 15.87283878  6062
STARLINK-1063,44768,53.1569,0.000162,15.29555288,476.03018437451465,478.25129436206953,1 44768U 19074BH  26059.73884867 -.00526085  00000+0 -19420-1 0  9997,2 44768  53.1569 260.9709 0001620 130.9650 229.1491 15.29555288346940
STARLINK-1067,44771,53.0506,9.27e-05,15.55364058,400.46612935573285,401.7229988877207,1 44771U 19074BL  26059.83323794  .00114979  00000+0  16452-2 0  9995,2 44771  53.0506 247.0836 0000927 275.6825  84.4080 15.55364058347131
STARLINK-1068,44772,53.0486,0.0002975,15.61211095,382.14584430940886,386.1694096124511,1 44772U 19074BM  26059.91668981  .00161671  00000+0  18433-2 0  9997,2 44772  53.0486 222.7810 0002975 197.5405 124.5143 15.61211095  5981
STARLINK-1112,44925,53.0356,0.0002896,16.02677979,265.0815209304965,268.93038772964337,1 44925U 20001M   26059.83651083  .00507502  12774-3  83163-3 0  9990,2 44925  53.0356 287.0504 0002896 233.5473 126.5291 16.02677979339900
STARLINK-1114,44927,53.0509,0.0008485,15.48492406,415.36643694024497,426.9048025759748,1 44927U 20001P   26059.84178026  .00082785  00000+0  15218-2 0  9995,2 44927  53.0509  11.7801 0008485  82.3709 277.8262 15.48492406338722
STARLINK-1123,44930,53.1163,0.0001556,15.20670475,502.7461681231616,504.8878322080145,1 44930U 20001S   26059.91668981  .00994057  00000+0  41093-1 0  9994,2 44930  53.1163  25.6385 0001556  94.9139 200.3416 15.20670475  5730
STARLINK-1094,44941,53.1634,0.0001569,15.30198066,474.145552155077,476.2961358465236,1 44941U 20001AD  26059.80066905 -.00001484  00000+0 -37976-4 0  9995,2 44941  53.1634   0.8489 0001569 111.8128 248.3039 15.30198066338875
STARLINK-1122,44949,53.1621,0.0001547,15.30191482,474.18028525025056,476.3007202496001,1 44949U 20001AM  26059.56575599 -.00000405  00000+0 -15577-5 0  9996,2 44949  53.1621   1.9868 0001547  90.6260 269.4918 15.30191482338830
STARLINK-1080,44961,53.0536,0.0008607,15.45506602,424.03026027897704,435.7495978346569,1 44961U 20001AZ  26059.76178520  .00081388  00000+0  16591-2 0  9996,2 44961  53.0536 330.7994 0008607  86.7119 273.4872 15.45506602339299
STARLINK-1090,44968,53.0544,0.0001562,15.06392797,546.1518912907632,548.3153770768822,1 44968U 20001BG  26059.20628425 -.00000733  00000+0 -30310-4 0  9990,2 44968  53.0544 349.1918 0001562  91.3194 268.7974 15.06392797338983
STARLINK-1132,45044,53.1578,0.0005079,15.42562548,435.0872764258711,442.0116665436044,1 45044U 20006A   26059.84913789  .00071171  00000+0  16075-2 0  9993,2 45044  53.1578 295.8355 0005079 154.5239 205.6018 15.42562548335561
STARLINK-1131,45047,53.1608,0.0001693,15.30194496,474.0712281328524,476.3917787081118,1 45047U 20006D   26059.71785487 -.00001534  00000+0 -39658-4 0  9996,2 45047  53.1608 322.6530 0001693  94.4868 265.6327 15.30194496335176
STARLINK-1134,45048,53.0335,0.0010106,15.42312086,432.39775435015144,446.17713263534006,1 45048U 20006E   26059.81813100  .00018537  00000+0  43156-3 0  9998,2 45048  53.0335 280.4600 0010106 140.9142 219.2595 15.42312086335771
STARLINK-1156,45054,53.1606,0.0001315,15.30193915,474.33202000638175,476.1344563790253,1 45054U 20006L   26059.15636523 -.00000030  00000+0  11105-4 0  9994,2 45054  53.1606 325.2766 0001315  95.0592 265.0559 15.30193915335080
STARLINK-1159,45057,53.0455,0.0005053,15.79122796,329.5337191856361,336.3159182596364,1 45057U 20006P   26059.91668981  .00132335  00000+0  71837-3 0  9994,2 45057  53.0455 278.8269 0005053 116.8668 315.6919 15.79122796  5914
STARLINK-1166,45060,53.0539,0.0006086,15.43931216,430.37411064548087,438.66647710358484,1 45060U 20006S   26059.84149016  .00035050  00000+0  76399-3 0  9997,2 45060  53.0539 314.7953 0006086 111.7466 248.4187 15.43931216335291
STARLINK-1169,45061,53.1591,0.00013,15.30192211,474.34738727560944,476.1292648603867,1 45061U 20006T   26059.71153236 -.00004502  00000+0 -14000-3 0  9994,2 45061  53.1591 322.6976 0001300 100.7019 259.4129 15.30192211335175
STARLINK-1171,45062,53.0465,0.0001963,15.55656279,398.91498151431097,401.57617451444,1 45062U 20006U   26059.85524756  .00049589  00000+0  71167-3 0  9998,2 45062  53.0465 292.3313 0001963 351.1223   8.9752 15.55656279335611
STARLINK-1133,45064,53.1591,0.0001281,15.30183182,474.3873645630256,476.143206228543,1 45064U 20006W   26059.84794755  .00002345  00000+0  91312-4 0  9991,2 45064  53.1591 298.8685 0001281  93.6611 266.4536 15.30183182335521
STARLINK-1167,45071,53.1607,0.0001206,15.29352141,476.9209733465914,478.57461275867627,1 45071U 20006AD  26059.80569615 -.00000328  00000+0  97099-6 0  9990,2 45071  53.1607 299.0628 0001206  61.0884 299.0238 15.29352141335516
STARLINK-1168,45072,53.1605,0.0001357,15.29359222,476.7962903108719,478.6569717003267,1 45072U 20006AE  26059.81549640  .00000829  00000+0  41063-4 0  9991,2 45072  53.1605 299.0809 0001357  95.1310 264.9845 15.29359222335517
STARLINK-1172,45074,53.1583,0.0001579,15.30207002,474.1120217985599,476.2763037797695,1 45074U 20006AG  26059.82479035  .00003248  00000+0  12173-3 0  9991,2 45074  53.1583 299.0006 0001579  89.4581 270.6600 15.30207002335518
STARLINK-1153,45080,53.161,0.0001487,15.29379216,476.64742043020397,478.68633650365973,1 45080U 20006AN  26059.85544449 -.00003339  00000+0 -10333-3 0  9992,2 45080  53.1610 298.7506 0001487  86.7560 273.3611 15.29379216335520
STARLINK-1151,45081,53.0527,0.0001606,15.59877829,386.92370150677743,389.0969880339171,1 45081U 20006AP  26059.91668981  .01205904  00000+0  13418-1 0  9994,2 45081  53.0527 282.7912 0001606  79.4450 111.8919 15.59877829  5911
STARLINK-1185,45087,53.155,0.0001238,15.29386155,476.797395453852,478.49488735966315,1 45087U 20006AV  26059.82888729  .00006022  00000+0  22066-3 0  9994,2 45087  53.1550 283.5447 0001238  98.8191 261.2950 15.29386155335739
STARLINK-1183,45088,53.1586,0.000138,15.30188572,474.3034242853373,476.1949588742136,1 45088U 20006AW  26059.80468604 -.00000751  00000+0 -13225-4 0  9992,2 45088  53.1586 283.8517 0001380  88.7073 271.4086 15.30188572335722
STARLINK-1152,45096,53.04,0.0005859,15.37156179,450.5202823997961,458.52679401846945,1 45096U 20006BE  26059.75938389  .00061432  00000+0  16605-2 0  9991,2 45096  53.0400 248.5677 0005859 160.7626 199.3598 15.37156179336216
STARLINK-1184,45098,53.0532,0.0006511,15.09872323,532.0876098936778,541.0919671176698,1 45098U 20006BG  26059.33356939  .00003642  00000+0  24012-3 0  9993,2 45098  53.0532 287.6559 0006511 109.9913 250.1779 15.09872323335623
STARLINK-1193,45100,53.0539,0.000196,15.52460258,408.21502311028325,410.8757946145579,1 45100U 20006BJ  26059.91668981  .01092115  00000+0  15868-1 0  9995,2 45100  53.0539 272.8162 0001960  79.7157 334.5948 15.52460258  5893
